OBJECT_NAME,OBJECT_ID,EPOCH,MEAN_MOTION,ECCENTRICITY,INCLINATION,RA_OF_ASC_NODE,ARG_OF_PERICENTER,MEAN_ANOMALY,EPHEMERIS_TYPE,CLASSIFICATION_TYPE,NORAD_CAT_ID,ELEMENT_SET_NO,REV_AT_EPOCH,BSTAR,MEAN_MOTION_DOT,MEAN_MOTION_DDOT
JCSAT-3A,2006-033A,2026-07-01T21:28:51.684960,1.00273199,.00025035,0.0107,338.7005,126.4820,264.9648,0,U,29272,999,4788,0,-.334E-5,0
KOREASAT 5 (MUGUNGWHA 5),2006-034A,2026-07-01T21:24:37.091808,1.00269520,.00020254,1.8210,82.8225,57.9407,213.3771,0,U,29349,999,4146,0,-.348E-5,0
DIRECTV 9S,2006-043A,2026-07-01T22:06:09.455328,1.00271938,.0005398,2.4567,80.7345,22.9938,46.5815,0,U,29494,999,5153,0,-.105E-5,0
OPTUS D1,2006-043B,2026-07-01T21:35:43.526976,1.00273279,.00038043,3.0705,79.4859,16.8175,299.5333,0,U,29495,999,7226,0,-.175E-5,0
BADR-4,2006-051A,2026-07-01T19:19:31.927296,1.00270785,.00053132,2.0405,80.9741,18.4069,144.7863,0,U,29526,999,5141,0,.165E-5,0
WILDBLUE-1,2006-054A,2026-07-01T22:03:17.229888,1.00271391,.00016772,2.8390,80.3063,21.6924,37.5688,0,U,29643,999,5394,0,-.4E-6,0
SKYNET 5A,2007-007B,2026-07-01T21:59:21.796800,1.00269564,.0003758,5.3369,73.5623,32.6474,238.7887,0,U,30794,999,7084,0,-.264E-5,0
ANIK F3,2007-009A,2026-07-01T22:01:09.934176,1.00271304,.00028645,1.2336,83.6914,15.6846,32.1668,0,U,31102,999,4671,0,.9E-7,0
ASTRA 1L,2007-016A,2026-07-01T19:02:42.677664,1.00271979,.00056695,1.3574,81.4799,21.5125,78.0368,0,U,31306,999,4513,0,-.175E-5,0
GALAXY 17 (G-17),2007-016B,2026-07-01T22:10:46.511616,1.00271341,.00040305,3.0070,79.7231,20.4112,67.5204,0,U,31307,999,6995,0,-.198E-5,0
INTELSAT 11 (IS-11),2007-044B,2026-07-01T21:09:49.533984,0.99047891,.00034341,3.6015,78.4988,88.2064,131.8359,0,U,32253,999,6859,0,.94E-6,0
WGS F1 (USA 195),2007-046A,2026-07-01T12:07:00.735168,1.00270583,.00001737,0.0252,74.6843,45.1379,298.9989,0,U,32258,999,5247,0,-.257E-5,0
SKYNET 5B,2007-056B,2026-07-01T20:59:28.221216,1.00273301,.00034584,5.2887,73.3290,31.7622,154.7837,0,U,32294,999,6834,0,.147E-5,0
ASTRA 4A,2007-057A,2026-07-01T21:37:26.431968,1.00272357,.00026259,0.0109,0.8501,102.2787,145.9759,0,U,32299,999,5179,0,.43E-6,0
HORIZONS-2,2007-063B,2026-07-01T22:55:14.224800,1.00269497,.00040633,2.6380,80.4539,12.2271,97.3030,0,U,32388,999,6796,0,-.244E-5,0
THURAYA-3,2008-001A,2026-07-01T17:42:38.687328,1.00141082,.00007621,6.0122,35.8085,139.4447,75.2619,0,U,32404,999,6763,0,.3E-6,0
THOR 5,2008-006A,2026-07-01T20:52:10.456608,1.00272125,.0002726,0.0400,234.1665,231.8052,126.2333,0,U,32487,999,6746,0,.1E-7,0
AMC-14,2008-011A,2026-07-01T02:23:21.206400,1.00420017,.00405372,24.0263,20.3523,7.5512,358.3870,0,U,32708,999,6831,0,-.107E-5,0
DIRECTV 11,2008-013A,2026-07-01T15:16:03.048096,1.00268968,.00003604,0.0138,260.0771,160.7014,348.7399,0,U,32729,999,4573,0,-.115E-5,0
ICO G1,2008-016A,2026-07-01T15:17:55.368960,1.00271934,.00021421,5.5271,36.0814,53.5817,326.6380,0,U,32763,999,6669,0,-.164E-5,0
VINASAT-1,2008-018A,2026-07-01T22:14:38.608800,1.00271353,.00016741,0.0371,287.8333,183.0753,274.6617,0,U,32767,999,6673,0,-.318E-5,0
STAR ONE C2,2008-018B,2026-07-01T22:16:30.960768,1.00273562,.00029702,1.2762,82.3401,25.7924,80.9559,0,U,32768,999,6680,0,-.267E-5,0
AMOS-3,2008-022A,2026-07-01T21:06:34.845408,1.00484445,.00027406,0.4913,86.0360,69.9894,130.5042,0,U,32794,999,8248,0,.96E-6,0
GALAXY 18 (G-18),2008-024A,2026-07-01T21:59:47.564736,1.00272001,.00031915,0.0171,44.5007,61.3585,21.0499,0,U,32951,999,4600,0,.36E-6,0
ZHONGXING-9,2008-028A,2026-07-01T23:01:18.779232,1.00269902,.00040065,0.8055,85.1851,3.7967,268.7226,0,U,33051,999,6618,0,-.238E-5,0
SKYNET 5C,2008-030A,2026-07-01T20:47:18.423744,1.00271374,.00044563,3.8243,76.8721,31.9601,105.1161,0,U,33055,999,6610,0,-.132E-5,0
TURKSAT 3A,2008-030B,2026-07-01T21:55:38.595360,1.00271383,.00053785,0.0455,75.7582,5.5338,209.5643,0,U,33056,999,5250,0,.157E-5,0
ECHOSTAR 11,2008-035A,2026-07-01T22:03:47.182176,1.00272222,.0002605,1.0412,84.0336,7.5899,49.4890,0,U,33207,999,5136,0,-.48E-6,0
SUPERBIRD-C2,2008-038A,2026-07-01T21:31:06.469824,1.00270446,.00065506,2.3968,81.0923,32.3558,265.2724,0,U,33274,999,10587,0,-.297E-5,0
INMARSAT 4-F3,2008-039A,2026-07-01T15:16:25.512096,1.00270617,.00025991,4.3047,31.6600,73.9443,305.1835,0,U,33278,999,4669,0,-.132E-5,0
NIMIQ 4,2008-044A,2026-07-01T22:11:38.927904,1.00267140,.00018416,0.0392,60.9973,44.8227,65.1080,0,U,33373,999,6513,0,0,0
GALAXY 19 (G-19),2008-045A,2026-07-01T22:07:24.334752,1.00271640,.00029339,0.0516,250.8599,224.7899,39.1666,0,U,33376,999,6505,0,-.129E-5,0
