JCSAT-3A                
1 29272U 06033A   26182.89504265 -.00000334  00000+0  00000+0 0  9991
2 29272   0.0107 338.7005 0002503 126.4820 264.9648  1.00273199 47889
KOREASAT 5 (MUGUNGWHA 5)
1 29349U 06034A   26182.89209597 -.00000348  00000+0  00000+0 0  9992
2 29349   1.8210  82.8225 0002025  57.9407 213.3771  1.00269520 41463
DIRECTV 9S              
1 29494U 06043A   26182.92094277 -.00000105  00000+0  00000+0 0  9995
2 29494   2.4567  80.7345 0005398  22.9938  46.5815  1.00271938 51533
OPTUS D1                
1 29495U 06043B   26182.89980934 -.00000175  00000+0  00000+0 0  9993
2 29495   3.0705  79.4859 0003804  16.8175 299.5333  1.00273279 72263
BADR-4                  
1 29526U 06051A   26182.80523064  .00000165  00000+0  00000+0 0  9993
2 29526   2.0405  80.9741 0005313  18.4069 144.7863  1.00270785 51410
WILDBLUE-1              
1 29643U 06054A   26182.91894942 -.00000040  00000+0  00000+0 0  9997
2 29643   2.8390  80.3063 0001677  21.6924  37.5688  1.00271391 53945
SKYNET 5A               
1 30794U 07007B   26182.91622450 -.00000264  00000+0  00000+0 0  9996
2 30794   5.3369  73.5623 0003758  32.6474 238.7887  1.00269564 70841
ANIK F3                 
1 31102U 07009A   26182.91747609  .00000009  00000+0  00000+0 0  9992
2 31102   1.2336  83.6914 0002864  15.6846  32.1668  1.00271304 46717
ASTRA 1L                
1 31306U 07016A   26182.79354951 -.00000175  00000+0  00000+0 0  9991
2 31306   1.3574  81.4799 0005669  21.5125  78.0368  1.00271979 45136
GALAXY 17 (G-17)        
1 31307U 07016B   26182.92414944 -.00000198  00000+0  00000+0 0  9991
2 31307   3.0070  79.7231 0004030  20.4112  67.5204  1.00271341 69954
INTELSAT 11 (IS-11)     
1 32253U 07044B   26182.88182331  .00000094  00000+0  00000+0 0  9994
2 32253   3.6015  78.4988 0003434  88.2064 131.8359  0.99047891 68593
WGS F1 (USA 195)        
1 32258U 07046A   26182.50486962 -.00000257  00000+0  00000+0 0  9999
2 32258   0.0252  74.6843 0000173  45.1379 298.9989  1.00270583 52471
SKYNET 5B               
1 32294U 07056B   26182.87463219  .00000147  00000+0  00000+0 0  9997
2 32294   5.2887  73.3290 0003458  31.7622 154.7837  1.00273301 68340
ASTRA 4A                
1 32299U 07057A   26182.90100037  .00000043  00000+0  00000+0 0  9998
2 32299   0.0109   0.8501 0002625 102.2787 145.9759  1.00272357 51792
HORIZONS-2              
1 32388U 07063B   26182.95502575 -.00000244  00000+0  00000+0 0  9996
2 32388   2.6380  80.4539 0004063  12.2271  97.3030  1.00269497 67960
THURAYA-3               
1 32404U 08001A   26182.73794777  .00000030  00000+0  00000+0 0  9993
2 32404   6.0122  35.8085 0000762 139.4447  75.2619  1.00141082 67631
THOR 5                  
1 32487U 08006A   26182.86956547  .00000001  00000+0  00000+0 0  9996
2 32487   0.0400 234.1665 0002726 231.8052 126.2333  1.00272125 67468
AMC-14                  
1 32708U 08011A   26182.09955100 -.00000107  00000+0  00000+0 0  9995
2 32708  24.0263  20.3523 0040537   7.5512 358.3870  1.00420017 68310
DIRECTV 11              
1 32729U 08013A   26182.63614639 -.00000115  00000+0  00000+0 0  9998
2 32729   0.0138 260.0771 0000360 160.7014 348.7399  1.00268968 45730
ICO G1                  
1 32763U 08016A   26182.63744640 -.00000164  00000+0  00000+0 0  9999
2 32763   5.5271  36.0814 0002142  53.5817 326.6380  1.00271934 66695
VINASAT-1               
1 32767U 08018A   26182.92683575 -.00000318  00000+0  00000+0 0  9997
2 32767   0.0371 287.8333 0001674 183.0753 274.6617  1.00271353 66734
STAR ONE C2             
1 32768U 08018B   26182.92813612 -.00000267  00000+0  00000+0 0  9998
2 32768   1.2762  82.3401 0002970  25.7924  80.9559  1.00273562 66803
AMOS-3                  
1 32794U 08022A   26182.87956997  .00000096  00000+0  00000+0 0  9999
2 32794   0.4913  86.0360 0002740  69.9894 130.5042  1.00484445 82482
GALAXY 18 (G-18)        
1 32951U 08024A   26182.91652274  .00000036  00000+0  00000+0 0  9996
2 32951   0.0171  44.5007 0003191  61.3585  21.0499  1.00272001 46001
ZHONGXING-9             
1 33051U 08028A   26182.95924513 -.00000238  00000+0  00000+0 0  9999
2 33051   0.8055  85.1851 0004006   3.7967 268.7226  1.00269902 66185
SKYNET 5C               
1 33055U 08030A   26182.86618546 -.00000132  00000+0  00000+0 0  9995
2 33055   3.8243  76.8721 0004456  31.9601 105.1161  1.00271374 66101
TURKSAT 3A              
1 33056U 08030B   26182.91364115  .00000157  00000+0  00000+0 0  9998
2 33056   0.0455  75.7582 0005378   5.5338 209.5643  1.00271383 52500
ECHOSTAR 11             
1 33207U 08035A   26182.91929609 -.00000048  00000+0  00000+0 0  9996
2 33207   1.0412  84.0336 0002605   7.5899  49.4890  1.00272222 51367
SUPERBIRD-C2            
1 33274U 08038A   26182.89660266 -.00000297  00000+0  00000+0 0  9997
2 33274   2.3968  81.0923 0006550  32.3558 265.2724  1.00270446105877
INMARSAT 4-F3           
1 33278U 08039A   26182.63640639 -.00000132  00000+0  00000+0 0  9994
2 33278   4.3047  31.6600 0002599  73.9443 305.1835  1.00270617 46698
NIMIQ 4                 
1 33373U 08044A   26182.92475611  .00000000  00000+0  00000+0 0  9997
2 33373   0.0392  60.9973 0001841  44.8227  65.1080  1.00267140 65136
GALAXY 19 (G-19)        
1 33376U 08045A   26182.92180943 -.00000129  00000+0  00000+0 0  9995
2 33376   0.0516 250.8599 0002933 224.7899  39.1666  1.00271640 65050
